{
  "type": "FeatureCollection",
  "features": [
    {
      "type": "Feature",
      "properties": {
        "norad_id": 52912,
        "name": "GAOFEN-12 03",
        "group": "resource",
        "lat": 8.447643549286424,
        "lon": -115.16106656916897,
        "alt_km": 631.300830692142,
        "timestamp": "2025-12-24T22:42:21.680025+00:00",
        "meta_object_name": "GAOFEN-12 03",
        "meta_object_id": "2022-069A",
        "meta_epoch": "2025-12-24T06:26:15.092736",
        "meta_mean_motion": 14.79636971,
        "meta_eccentricity": 0.00018635,
        "meta_inclination": 97.8479,
        "meta_ra_of_asc_node": 245.3507,
        "meta_arg_of_pericenter": 49.6588,
        "meta_mean_anomaly": 310.4787,
        "meta_ephemeris_type": 0,
        "meta_classification_type": "U",
        "meta_norad_cat_id": 52912,
        "meta_element_set_no": 999,
        "meta_rev_at_epoch": 18874,
        "meta_bstar": 0.00022806165,
        "meta_mean_motion_dot": 1.66e-05,
        "meta_mean_motion_ddot": 0,
        "tle_line1": "1 52912U 22069A   25358.26823024  .00001660  00000+0  22806-3 0  9991",
        "tle_line2": "2 52912  97.8479 245.3507 0001863  49.6588 310.4787 14.79636971188740"
      },
      "geometry": {
        "type": "Point",
        "coordinates": [
          -115.16106656916897,
          8.447643549286424
        ]
      }
    },
    {
      "type": "Feature",
      "properties": {
        "norad_id": 54754,
        "name": "SWOT",
        "group": "resource",
        "lat": 72.25590655254035,
        "lon": 47.12764669320819,
        "alt_km": 885.8225109387804,
        "timestamp": "2025-12-24T22:42:21.680036+00:00",
        "meta_object_name": "SWOT",
        "meta_object_id": "2022-173A",
        "meta_epoch": "2025-12-24T05:04:04.743264",
        "meta_mean_motion": 14.0016854,
        "meta_eccentricity": 3.97e-05,
        "meta_inclination": 77.6109,
        "meta_ra_of_asc_node": 271.505,
        "meta_arg_of_pericenter": 82.5384,
        "meta_mean_anomaly": 277.5813,
        "meta_ephemeris_type": 0,
        "meta_classification_type": "U",
        "meta_norad_cat_id": 54754,
        "meta_element_set_no": 999,
        "meta_rev_at_epoch": 15466,
        "meta_bstar": 5.9967938e-05,
        "meta_mean_motion_dot": 8.6e-07,
        "meta_mean_motion_ddot": 0,
        "tle_line1": "1 54754U 22173A   25358.21116601  .00000086  00000+0  59968-4 0  9995",
        "tle_line2": "2 54754  77.6109 271.5050 0000397  82.5384 277.5813 14.00168540154660"
      },
      "geometry": {
        "type": "Point",
        "coordinates": [
          47.12764669320819,
          72.25590655254035
        ]
      }
    },
    {
      "type": "Feature",
      "properties": {
        "norad_id": 57654,
        "name": "GAOFEN-12 04",
        "group": "resource",
        "lat": -2.559940699215657,
        "lon": 94.16216512566061,
        "alt_km": 633.7387660614595,
        "timestamp": "2025-12-24T22:42:21.680046+00:00",
        "meta_object_name": "GAOFEN-12 04",
        "meta_object_id": "2023-123A",
        "meta_epoch": "2025-12-24T07:16:40.865664",
        "meta_mean_motion": 14.79732136,
        "meta_eccentricity": 0.00012062,
        "meta_inclination": 97.9128,
        "meta_ra_of_asc_node": 273.8854,
        "meta_arg_of_pericenter": 79.0319,
        "meta_mean_anomaly": 281.1028,
        "meta_ephemeris_type": 0,
        "meta_classification_type": "U",
        "meta_norad_cat_id": 57654,
        "meta_element_set_no": 999,
        "meta_rev_at_epoch": 12676,
        "meta_bstar": 0.00018893385,
        "meta_mean_motion_dot": 1.369e-05,
        "meta_mean_motion_ddot": 0,
        "tle_line1": "1 57654U 23123A   25358.30325076  .00001369  00000+0  18893-3 0  9997",
        "tle_line2": "2 57654  97.9128 273.8854 0001206  79.0319 281.1028 14.79732136126767"
      },
      "geometry": {
        "type": "Point",
        "coordinates": [
          94.16216512566061,
          -2.559940699215657
        ]
      }
    },
    {
      "type": "Feature",
      "properties": {
        "norad_id": 59065,
        "name": "PARS 1",
        "group": "resource",
        "lat": 31.955432070025164,
        "lon": -34.55143399743563,
        "alt_km": 432.72875234010917,
        "timestamp": "2025-12-24T22:42:21.680057+00:00",
        "meta_object_name": "PARS 1",
        "meta_object_id": "2024-039Q",
        "meta_epoch": "2025-12-24T06:59:05.284032",
        "meta_mean_motion": 15.41230399,
        "meta_eccentricity": 0.00116667,
        "meta_inclination": 97.4653,
        "meta_ra_of_asc_node": 329.471,
        "meta_arg_of_pericenter": 36.9364,
        "meta_mean_anomaly": 323.2683,
        "meta_ephemeris_type": 0,
        "meta_classification_type": "U",
        "meta_norad_cat_id": 59065,
        "meta_element_set_no": 999,
        "meta_rev_at_epoch": 10166,
        "meta_bstar": 0.00031437969,
        "meta_mean_motion_dot": 0.00013011,
        "meta_mean_motion_ddot": 0,
        "tle_line1": "1 59065U 24039Q   25358.29103338  .00013011  00000+0  31438-3 0  9992",
        "tle_line2": "2 59065  97.4653 329.4710 0011666  36.9364 323.2683 15.41230399101666"
      },
      "geometry": {
        "type": "Point",
        "coordinates": [
          -34.55143399743563,
          31.955432070025164
        ]
      }
    },
    {
      "type": "Feature",
      "properties": {
        "norad_id": 59371,
        "name": "RESURS-P 4",
        "group": "resource",
        "lat": 39.10525075090537,
        "lon": 130.9721385942991,
        "alt_km": 466.1620267453209,
        "timestamp": "2025-12-24T22:42:21.680067+00:00",
        "meta_object_name": "RESURS-P 4",
        "meta_object_id": "2024-061A",
        "meta_epoch": "2025-12-24T07:59:19.034880",
        "meta_mean_motion": 15.32187193,
        "meta_eccentricity": 8.191e-05,
        "meta_inclination": 97.2564,
        "meta_ra_of_asc_node": 304.4264,
        "meta_arg_of_pericenter": 76.2659,
        "meta_mean_anomaly": 283.8674,
        "meta_ephemeris_type": 0,
        "meta_classification_type": "U",
        "meta_norad_cat_id": 59371,
        "meta_element_set_no": 999,
        "meta_rev_at_epoch": 9698,
        "meta_bstar": 0.0001410279,
        "meta_mean_motion_dot": 4.306e-05,
        "meta_mean_motion_ddot": 0,
        "tle_line1": "1 59371U 24061A   25358.33285920  .00004306  00000+0  14103-3 0  9997",
        "tle_line2": "2 59371  97.2564 304.4264 0000819  76.2659 283.8674 15.32187193 96986"
      },
      "geometry": {
        "type": "Point",
        "coordinates": [
          130.9721385942991,
          39.10525075090537
        ]
      }
    },
    {
      "type": "Feature",
      "properties": {
        "norad_id": 59625,
        "name": "LEGION 1",
        "group": "resource",
        "lat": 40.93563934358317,
        "lon": 66.90158794119739,
        "alt_km": 514.8563845265044,
        "timestamp": "2025-12-24T22:42:21.680078+00:00",
        "meta_object_name": "LEGION 1",
        "meta_object_id": "2024-081A",
        "meta_epoch": "2025-12-24T05:06:20.370528",
        "meta_mean_motion": 15.16589323,
        "meta_eccentricity": 0.00036083,
        "meta_inclination": 97.5198,
        "meta_ra_of_asc_node": 72.7533,
        "meta_arg_of_pericenter": 263.7988,
        "meta_mean_anomaly": 96.2834,
        "meta_ephemeris_type": 0,
        "meta_classification_type": "U",
        "meta_norad_cat_id": 59625,
        "meta_element_set_no": 999,
        "meta_rev_at_epoch": 9101,
        "meta_bstar": 0.0002874896,
        "meta_mean_motion_dot": 5.548e-05,
        "meta_mean_motion_ddot": 0,
        "tle_line1": "1 59625U 24081A   25358.21273577  .00005548  00000+0  28749-3 0  9993",
        "tle_line2": "2 59625  97.5198  72.7533 0003608 263.7988  96.2834 15.16589323 91011"
      },
      "geometry": {
        "type": "Point",
        "coordinates": [
          66.90158794119739,
          40.93563934358317
        ]
      }
    },
    {
      "type": "Feature",
      "properties": {
        "norad_id": 59626,
        "name": "LEGION 2",
        "group": "resource",
        "lat": -41.39239404258645,
        "lon": -113.11770652908083,
        "alt_km": 519.0009556229897,
        "timestamp": "2025-12-24T22:42:21.680088+00:00",
        "meta_object_name": "LEGION 2",
        "meta_object_id": "2024-081B",
        "meta_epoch": "2025-12-24T05:53:45.684096",
        "meta_mean_motion": 15.1660189,
        "meta_eccentricity": 0.00057447,
        "meta_inclination": 97.5199,
        "meta_ra_of_asc_node": 72.8739,
        "meta_arg_of_pericenter": 243.7683,
        "meta_mean_anomaly": 116.296,
        "meta_ephemeris_type": 0,
        "meta_classification_type": "U",
        "meta_norad_cat_id": 59626,
        "meta_element_set_no": 999,
        "meta_rev_at_epoch": 9102,
        "meta_bstar": 0.00028200914,
        "meta_mean_motion_dot": 5.444e-05,
        "meta_mean_motion_ddot": 0,
        "tle_line1": "1 59626U 24081B   25358.24566764  .00005444  00000+0  28201-3 0  9998",
        "tle_line2": "2 59626  97.5199  72.8739 0005744 243.7683 116.2960 15.16601890 91023"
      },
      "geometry": {
        "type": "Point",
        "coordinates": [
          -113.11770652908083,
          -41.39239404258645
        ]
      }
    }
  ]
}